{
  "type": "FeatureCollection",
  "features": [
    {
      "type": "Feature",
      "properties": {
        "norad_id": 43208,
        "name": "BEIDOU-3 M3 (C21)",
        "group": "beidou",
        "lat": 27.73134006950337,
        "lon": 89.96553628071896,
        "alt_km": 21520.555496525147,
        "timestamp": "2025-12-03T20:47:58.488832+00:00",
        "meta_object_name": "BEIDOU-3 M3 (C21)",
        "meta_object_id": "2018-018B",
        "meta_epoch": "2025-12-03T06:41:57.693408",
        "meta_mean_motion": 1.86230862,
        "meta_eccentricity": 0.0006282,
        "meta_inclination": 56.4772,
        "meta_ra_of_asc_node": 69.6218,
        "meta_arg_of_pericenter": 317.5873,
        "meta_mean_anomaly": 42.3668,
        "meta_ephemeris_type": 0,
        "meta_classification_type": "U",
        "meta_norad_cat_id": 43208,
        "meta_element_set_no": 999,
        "meta_rev_at_epoch": 5309,
        "meta_bstar": 0,
        "meta_mean_motion_dot": -4.9e-07,
        "meta_mean_motion_ddot": 0,
        "tle_line1": "1 43208U 18018B   25337.27913997 -.00000049  00000+0  00000+0 0  9994",
        "tle_line2": "2 43208  56.4772  69.6218 0006282 317.5873  42.3668  1.86230862 53096"
      },
      "geometry": {
        "type": "Point",
        "coordinates": [
          89.96553628071896,
          27.73134006950337
        ]
      }
    },
    {
      "type": "Feature",
      "properties": {
        "norad_id": 43245,
        "name": "BEIDOU-3 M9 (C29)",
        "group": "beidou",
        "lat": -49.368603820732396,
        "lon": -176.59405067800932,
        "alt_km": 21529.22659461195,
        "timestamp": "2025-12-03T20:47:58.488844+00:00",
        "meta_object_name": "BEIDOU-3 M9 (C29)",
        "meta_object_id": "2018-029A",
        "meta_epoch": "2025-12-01T08:20:14.784576",
        "meta_mean_motion": 1.86227904,
        "meta_eccentricity": 0.00017985,
        "meta_inclination": 54.3765,
        "meta_ra_of_asc_node": 306.8658,
        "meta_arg_of_pericenter": 272.1738,
        "meta_mean_anomaly": 87.7976,
        "meta_ephemeris_type": 0,
        "meta_classification_type": "U",
        "meta_norad_cat_id": 43245,
        "meta_element_set_no": 999,
        "meta_rev_at_epoch": 5221,
        "meta_bstar": 0,
        "meta_mean_motion_dot": -5.8e-07,
        "meta_mean_motion_ddot": 0,
        "tle_line1": "1 43245U 18029A   25335.34739334 -.00000058  00000+0  00000+0 0  9994",
        "tle_line2": "2 43245  54.3765 306.8658 0001798 272.1738  87.7976  1.86227904 52214"
      },
      "geometry": {
        "type": "Point",
        "coordinates": [
          -176.59405067800932,
          -49.368603820732396
        ]
      }
    },
    {
      "type": "Feature",
      "properties": {
        "norad_id": 43246,
        "name": "BEIDOU-3 M10 (C30)",
        "group": "beidou",
        "lat": -48.72910911812162,
        "lon": -107.98174881246305,
        "alt_km": 21529.35860566632,
        "timestamp": "2025-12-03T20:47:58.488857+00:00",
        "meta_object_name": "BEIDOU-3 M10 (C30)",
        "meta_object_id": "2018-029B",
        "meta_epoch": "2025-12-02T08:33:31.669920",
        "meta_mean_motion": 1.86228858,
        "meta_eccentricity": 0.0003964,
        "meta_inclination": 54.3728,
        "meta_ra_of_asc_node": 306.8573,
        "meta_arg_of_pericenter": 359.3093,
        "meta_mean_anomaly": 0.678,
        "meta_ephemeris_type": 0,
        "meta_classification_type": "U",
        "meta_norad_cat_id": 43246,
        "meta_element_set_no": 999,
        "meta_rev_at_epoch": 5221,
        "meta_bstar": 0,
        "meta_mean_motion_dot": -6.2e-07,
        "meta_mean_motion_ddot": 0,
        "tle_line1": "1 43246U 18029B   25336.35661655 -.00000062  00000+0  00000+0 0  9992",
        "tle_line2": "2 43246  54.3728 306.8573 0003964 359.3093   0.6780  1.86228858 52215"
      },
      "geometry": {
        "type": "Point",
        "coordinates": [
          -107.98174881246305,
          -48.72910911812162
        ]
      }
    },
    {
      "type": "Feature",
      "properties": {
        "norad_id": 43539,
        "name": "BEIDOU-2 IGSO-7 (C16)",
        "group": "beidou",
        "lat": -22.19624530483315,
        "lon": 148.21527071663925,
        "alt_km": 35839.2714353339,
        "timestamp": "2025-12-03T20:47:58.488869+00:00",
        "meta_object_name": "BEIDOU-2 IGSO-7 (C16)",
        "meta_object_id": "2018-057A",
        "meta_epoch": "2025-12-03T10:51:14.895936",
        "meta_mean_motion": 1.00259551,
        "meta_eccentricity": 0.009247,
        "meta_inclination": 55.1728,
        "meta_ra_of_asc_node": 164.7534,
        "meta_arg_of_pericenter": 235.1642,
        "meta_mean_anomaly": 306.8485,
        "meta_ephemeris_type": 0,
        "meta_classification_type": "U",
        "meta_norad_cat_id": 43539,
        "meta_element_set_no": 999,
        "meta_rev_at_epoch": 2716,
        "meta_bstar": 0,
        "meta_mean_motion_dot": -2.5e-07,
        "meta_mean_motion_ddot": 0,
        "tle_line1": "1 43539U 18057A   25337.45225574 -.00000025  00000+0  00000+0 0  9995",
        "tle_line2": "2 43539  55.1728 164.7534 0092470 235.1642 306.8485  1.00259551 27167"
      },
      "geometry": {
        "type": "Point",
        "coordinates": [
          148.21527071663925,
          -22.19624530483315
        ]
      }
    },
    {
      "type": "Feature",
      "properties": {
        "norad_id": 43581,
        "name": "BEIDOU-3 M5 (C23)",
        "group": "beidou",
        "lat": 30.085995455865266,
        "lon": -15.870102025192212,
        "alt_km": 21529.77273691029,
        "timestamp": "2025-12-03T20:47:58.488881+00:00",
        "meta_object_name": "BEIDOU-3 M5 (C23)",
        "meta_object_id": "2018-062A",
        "meta_epoch": "2025-12-03T02:50:25.082304",
        "meta_mean_motion": 1.86228529,
        "meta_eccentricity": 0.0002116,
        "meta_inclination": 54.0891,
        "meta_ra_of_asc_node": 188.971,
        "meta_arg_of_pericenter": 350.4308,
        "meta_mean_anomaly": 9.6608,
        "meta_ephemeris_type": 0,
        "meta_classification_type": "U",
        "meta_norad_cat_id": 43581,
        "meta_element_set_no": 999,
        "meta_rev_at_epoch": 4998,
        "meta_bstar": 0,
        "meta_mean_motion_dot": 1.18e-06,
        "meta_mean_motion_ddot": 0,
        "tle_line1": "1 43581U 18062A   25337.11834586  .00000118  00000+0  00000+0 0  9992",
        "tle_line2": "2 43581  54.0891 188.9710 0002116 350.4308   9.6608  1.86228529 49989"
      },
      "geometry": {
        "type": "Point",
        "coordinates": [
          -15.870102025192212,
          30.085995455865266
        ]
      }
    },
    {
      "type": "Feature",
      "properties": {
        "norad_id": 43582,
        "name": "BEIDOU-3 M6 (C24)",
        "group": "beidou",
        "lat": -40.6476013672183,
        "lon": 47.419333128634875,
        "alt_km": 21554.16715363436,
        "timestamp": "2025-12-03T20:47:58.488893+00:00",
        "meta_object_name": "BEIDOU-3 M6 (C24)",
        "meta_object_id": "2018-062B",
        "meta_epoch": "2025-11-29T18:14:01.707936",
        "meta_mean_motion": 1.86229617,
        "meta_eccentricity": 0.00076529,
        "meta_inclination": 54.0888,
        "meta_ra_of_asc_node": 189.0746,
        "meta_arg_of_pericenter": 45.4041,
        "meta_mean_anomaly": 314.7474,
        "meta_ephemeris_type": 0,
        "meta_classification_type": "U",
        "meta_norad_cat_id": 43582,
        "meta_element_set_no": 999,
        "meta_rev_at_epoch": 4992,
        "meta_bstar": 0,
        "meta_mean_motion_dot": 1.07e-06,
        "meta_mean_motion_ddot": 0,
        "tle_line1": "1 43582U 18062B   25333.75974199  .00000107  00000+0  00000+0 0  9992",
        "tle_line2": "2 43582  54.0888 189.0746 0007652  45.4041 314.7474  1.86229617 49926"
      },
      "geometry": {
        "type": "Point",
        "coordinates": [
          47.419333128634875,
          -40.6476013672183
        ]
      }
    },
    {
      "type": "Feature",
      "properties": {
        "norad_id": 43602,
        "name": "BEIDOU-3 M12 (C26)",
        "group": "beidou",
        "lat": -53.83500216503848,
        "lon": 106.54240259996992,
        "alt_km": 21548.941519307416,
        "timestamp": "2025-12-03T20:47:58.488905+00:00",
        "meta_object_name": "BEIDOU-3 M12 (C26)",
        "meta_object_id": "2018-067A",
        "meta_epoch": "2025-12-02T22:03:38.488608",
        "meta_mean_motion": 1.86227625,
        "meta_eccentricity": 0.0009144,
        "meta_inclination": 54.1831,
        "meta_ra_of_asc_node": 187.6966,
        "meta_arg_of_pericenter": 40.498,
        "meta_mean_anomaly": 319.6647,
        "meta_ephemeris_type": 0,
        "meta_classification_type": "U",
        "meta_norad_cat_id": 43602,
        "meta_element_set_no": 999,
        "meta_rev_at_epoch": 4946,
        "meta_bstar": 0,
        "meta_mean_motion_dot": 1.2e-06,
        "meta_mean_motion_ddot": 0,
        "tle_line1": "1 43602U 18067A   25336.91919547  .00000120  00000+0  00000+0 0  9992",
        "tle_line2": "2 43602  54.1831 187.6966 0009144  40.4980 319.6647  1.86227625 49463"
      },
      "geometry": {
        "type": "Point",
        "coordinates": [
          106.54240259996992,
          -53.83500216503848
        ]
      }
    }
  ]
}